1 86892U          19328.52916667  .00000000  00000-0  00000-0 0 00000
2 86892 097.5740 217.2300 0000000 000.0000 214.1600 15.01914300000000
1 86892U          19328.96250000  .00000000  00000-0  00000-0 0 00000
2 86892 097.5740 217.6570 0000000 000.0000 034.1590 15.01914300000000
1 86892U          19329.16944444  .00000000  00000-0  00000-0 0 00000
2 86892 097.5730 217.8610 0000000 000.0000 071.6590 15.01914300000000
1 86892U          19329.51805556  .00000000  00000-0  00000-0 0 00000
2 86892 097.5730 218.2050 0000000 000.0000 154.1590 15.01914300000000
1 86892U          19329.92916667  .00000000  00000-0  00000-0 0 00000
2 86892 097.5720 218.6100 0000000 000.0000 214.1580 15.01914300000000
1 86892U          19330.17638889  .00000000  00000-0  00000-0 0 00000
2 86892 097.5720 218.8530 0000000 000.0000 109.1580 15.01914300000000
1 86892U          19330.54861111  .00000000  00000-0  00000-0 0 00000
2 86892 097.5710 219.2200 0000000 000.0000 319.1570 15.01914300000000
1 86892U          19330.95000000  .00000000  00000-0  00000-0 0 00000
2 86892 097.5710 219.6160 0000000 000.0000 326.6570 15.01914300000000
1 86892U          19331.24791667  .00000000  00000-0  00000-0 0 00000
2 86892 097.5700 219.9090 0000000 000.0000 135.4070 15.01914300000000
1 86892U          19331.62500000  .00000000  00000-0  00000-0 0 00000
2 86892 097.5700 220.2810 0000000 000.0000 011.6560 15.01914300000000
1 86892U          19331.83125000  .00000000  00000-0  00000-0 0 00000
2 86892 097.5690 220.4840 0000000 000.0000 045.4060 15.01914300000000
1 86892U          19332.27847222  .00000000  00000-0  00000-0 0 00000
2 86892 097.5690 220.9250 0000000 000.0000 300.4050 15.01914300000000
1 86892U          19332.53194444  .00000000  00000-0  00000-0 0 00000
2 86892 097.5690 221.1750 0000000 000.0000 229.1550 15.01914300000000
1 86892U          19332.89583333  .00000000  00000-0  00000-0 0 00000
2 86892 097.5680 221.5330 0000000 000.0000 034.1550 15.01914300000000
